

*******************************************************************************
Ephemeris / WWW_USER Thu May  4 19:53:40 2023 Pasadena, USA      / Horizons
*******************************************************************************
Target body name: Saturn (699)                    {source: sat441l}
Center body name: Sun (10)                        {source: DE441}
Center-site name: BODY CENTER
*******************************************************************************
Start time      : A.D. 1963-Jan-01 00:00:00.0000 TDB
Stop  time      : A.D. 2023-Jan-01 00:00:00.0000 TDB
Step-size       : 4320 minutes
*******************************************************************************
Center geodetic : 0.0, 0.0, 0.0                   {E-lon(deg),Lat(deg),Alt(km)}
Center cylindric: 0.0, 0.0, 0.0                   {E-lon(deg),Dxy(km),Dz(km)}
Center radii    : 696000.0, 696000.0, 696000.0 km {Equator_a, b, pole_c}
Output units    : KM-S
Calendar mode   : Mixed Julian/Gregorian
Output type     : GEOMETRIC cartesian states
Output format   : 1 (position only)
Reference frame : Ecliptic of J2000.0
*******************************************************************************
            JDTDB,            Calendar Date (TDB),                      X,                      Y,                      Z,
**************************************************************************************************************************
$$SOE
2446310.500000000, A.D. 1985-Sep-02 00:00:00.0000, -7.796741900751470E+08, -1.267394363875734E+09,  5.309089698079777E+07,
2446313.500000000, A.D. 1985-Sep-05 00:00:00.0000, -7.776724856642973E+08, -1.268710662898350E+09,  5.303437090377414E+07,
2446316.500000000, A.D. 1985-Sep-08 00:00:00.0000, -7.756688053197846E+08, -1.270023225920553E+09,  5.297755844769228E+07,
2446319.500000000, A.D. 1985-Sep-11 00:00:00.0000, -7.736633771232842E+08, -1.271332296017042E+09,  5.292060859734392E+07,
2446322.500000000, A.D. 1985-Sep-14 00:00:00.0000, -7.716560449982953E+08, -1.272638200072885E+09,  5.286367612681228E+07,
2446325.500000000, A.D. 1985-Sep-17 00:00:00.0000, -7.696464088684999E+08, -1.273940921621831E+09,  5.280671461349750E+07,
2446328.500000000, A.D. 1985-Sep-20 00:00:00.0000, -7.676343505815296E+08, -1.275240095377270E+09,  5.274952519764769E+07,
2446331.500000000, A.D. 1985-Sep-23 00:00:00.0000, -7.656202115872743E+08, -1.276535511594132E+09,  5.269203409729862E+07,
2446334.500000000, A.D. 1985-Sep-26 00:00:00.0000, -7.636043250588973E+08, -1.277827317941507E+09,  5.263435119494003E+07,
2446337.500000000, A.D. 1985-Sep-29 00:00:00.0000, -7.615866547668593E+08, -1.279115850090014E+09,  5.257664754282761E+07,
2446340.500000000, A.D. 1985-Oct-02 00:00:00.0000, -7.595668269326782E+08, -1.280401244053640E+09,  5.251895818744946E+07,
2446343.500000000, A.D. 1985-Oct-05 00:00:00.0000, -7.575445915869591E+08, -1.281683199914403E+09,  5.246110498199928E+07,
2446346.500000000, A.D. 1985-Oct-08 00:00:00.0000, -7.555201730460185E+08, -1.282961399966288E+09,  5.240294701363760E+07,
2446349.500000000, A.D. 1985-Oct-11 00:00:00.0000, -7.534939551932915E+08, -1.284235898245487E+09,  5.234455090426064E+07,
2446352.500000000, A.D. 1985-Oct-14 00:00:00.0000, -7.514660506294476E+08, -1.285507002856848E+09,  5.228608779703206E+07,
2446355.500000000, A.D. 1985-Oct-17 00:00:00.0000, -7.494361516068701E+08, -1.286774949723907E+09,  5.222765080633837E+07,
2446358.500000000, A.D. 1985-Oct-20 00:00:00.0000, -7.474038999994379E+08, -1.288039574717786E+09,  5.216912145979178E+07,
2446361.500000000, A.D. 1985-Oct-23 00:00:00.0000, -7.453693923172170E+08, -1.289300496236713E+09,  5.211031317309928E+07,
2446364.500000000, A.D. 1985-Oct-26 00:00:00.0000, -7.433330055163418E+08, -1.290557636716692E+09,  5.205122393526965E+07,
2446367.500000000, A.D. 1985-Oct-29 00:00:00.0000, -7.412949688203299E+08, -1.291811265547251E+09,  5.199201634245324E+07,
2446370.500000000, A.D. 1985-Nov-01 00:00:00.0000, -7.392551070595372E+08, -1.293061679362822E+09,  5.193282754009515E+07,
2446373.500000000, A.D. 1985-Nov-04 00:00:00.0000, -7.372130007004648E+08, -1.294308848548487E+09,  5.187360250427407E+07,
2446376.500000000, A.D. 1985-Nov-07 00:00:00.0000, -7.351685821328703E+08, -1.295552409691745E+09,  5.181414809994900E+07,
2446379.500000000, A.D. 1985-Nov-10 00:00:00.0000, -7.331222028425871E+08, -1.296792154163410E+09,  5.175439188400096E+07,
2446382.500000000, A.D. 1985-Nov-13 00:00:00.0000, -7.310741683387773E+08, -1.298028259542359E+09,  5.169445647407442E+07,
2446385.500000000, A.D. 1985-Nov-16 00:00:00.0000, -7.290244360985233E+08, -1.299261066799518E+09,  5.163451488227832E+07,
2446388.500000000, A.D. 1985-Nov-19 00:00:00.0000, -7.269726216240778E+08, -1.300490675851646E+09,  5.157458208759439E+07,
2446391.500000000, A.D. 1985-Nov-22 00:00:00.0000, -7.249184839776280E+08, -1.301716778590495E+09,  5.151447658148932E+07,
2446394.500000000, A.D. 1985-Nov-25 00:00:00.0000, -7.228622824077191E+08, -1.302939080742139E+09,  5.145407268604493E+07,
2446397.500000000, A.D. 1985-Nov-28 00:00:00.0000, -7.208043972798340E+08, -1.304157640253532E+09,  5.139343824716347E+07,
2446400.500000000, A.D. 1985-Dec-01 00:00:00.0000, -7.187448994557724E+08, -1.305372779225951E+09,  5.133274760365641E+07,
2446403.500000000, A.D. 1985-Dec-04 00:00:00.0000, -7.166834826693990E+08, -1.306584728623825E+09,  5.127209112407708E+07,
2446406.500000000, A.D. 1985-Dec-07 00:00:00.0000, -7.146198034776803E+08, -1.307793279843022E+09,  5.121132857852495E+07,
2446409.500000000, A.D. 1985-Dec-10 00:00:00.0000, -7.125539649141566E+08, -1.308998070642126E+09,  5.115028419602937E+07,
2446412.500000000, A.D. 1985-Dec-13 00:00:00.0000, -7.104863692838315E+08, -1.310199051989847E+09,  5.108897302499455E+07,
2446415.500000000, A.D. 1985-Dec-16 00:00:00.0000, -7.084172204128332E+08, -1.311396484835746E+09,  5.102755079215735E+07,
2446418.500000000, A.D. 1985-Dec-19 00:00:00.0000, -7.063463065914512E+08, -1.312590672767875E+09,  5.096615482327080E+07,
2446421.500000000, A.D. 1985-Dec-22 00:00:00.0000, -7.042732316306301E+08, -1.313781562680905E+09,  5.090472020144206E+07,
2446424.500000000, A.D. 1985-Dec-25 00:00:00.0000, -7.021979493165365E+08, -1.314968771265749E+09,  5.084304551179510E+07,
2446427.500000000, A.D. 1985-Dec-28 00:00:00.0000, -7.001208110243369E+08, -1.316152121687011E+09,  5.078107490797079E+07,
2446430.500000000, A.D. 1985-Dec-31 00:00:00.0000, -6.980421241048307E+08, -1.317331811288781E+09,  5.071894136981845E+07,
2446433.500000000, A.D. 1986-Jan-03 00:00:00.0000, -6.959618210035206E+08, -1.318508164239237E+09,  5.065680662102705E+07,
2446436.500000000, A.D. 1986-Jan-06 00:00:00.0000, -6.938794948128711E+08, -1.319681266983887E+09,  5.059467677991736E+07,
2446439.500000000, A.D. 1986-Jan-09 00:00:00.0000, -6.917949483549587E+08, -1.320850804108669E+09,  5.053237072359431E+07,
2446442.500000000, A.D. 1986-Jan-12 00:00:00.0000, -6.897084591213107E+08, -1.322016477237777E+09,  5.046976235349596E+07,
2446445.500000000, A.D. 1986-Jan-15 00:00:00.0000, -6.876203820430518E+08, -1.323178379046367E+09,  5.040693525415367E+07,
2446448.500000000, A.D. 1986-Jan-18 00:00:00.0000, -6.855307902937541E+08, -1.324336841868968E+09,  5.034406905100203E+07,
2446451.500000000, A.D. 1986-Jan-21 00:00:00.0000, -6.834393528751603E+08, -1.325492059094816E+09,  5.028123219201958E+07,
2446454.500000000, A.D. 1986-Jan-24 00:00:00.0000, -6.813457292963225E+08, -1.326643819162626E+09,  5.021828321272010E+07,
2446457.500000000, A.D. 1986-Jan-27 00:00:00.0000, -6.792500724288416E+08, -1.327791766355870E+09,  5.015505421762806E+07,
2446460.500000000, A.D. 1986-Jan-30 00:00:00.0000, -6.771527732656672E+08, -1.328935858558500E+09,  5.009156241484421E+07,
2446463.500000000, A.D. 1986-Feb-02 00:00:00.0000, -6.750540084990242E+08, -1.330076383889021E+09,  5.002797474645412E+07,
2446466.500000000, A.D. 1986-Feb-05 00:00:00.0000, -6.729535629600859E+08, -1.331213634691156E+09,  4.996442201698309E+07,
2446469.500000000, A.D. 1986-Feb-08 00:00:00.0000, -6.708510383355061E+08, -1.332347520922143E+09,  4.990081958445710E+07,
2446472.500000000, A.D. 1986-Feb-11 00:00:00.0000, -6.687464070893018E+08, -1.333477669114342E+09,  4.983697285810387E+07,
2446475.500000000, A.D. 1986-Feb-14 00:00:00.0000, -6.666400474297385E+08, -1.334603927083348E+09,  4.977284090582466E+07,
2446478.500000000, A.D. 1986-Feb-17 00:00:00.0000, -6.645322462049080E+08, -1.335726492210496E+09,  4.970855429002792E+07,
2446481.500000000, A.D. 1986-Feb-20 00:00:00.0000, -6.624228973381143E+08, -1.336845701301477E+09,  4.964427746382344E+07,
2446484.500000000, A.D. 1986-Feb-23 00:00:00.0000, -6.603116105770969E+08, -1.337961620407223E+09,  4.958000709981179E+07,
2446487.500000000, A.D. 1986-Feb-26 00:00:00.0000, -6.581982029987177E+08, -1.339073901951208E+09,  4.951554658162284E+07,
2446490.500000000, A.D. 1986-Mar-01 00:00:00.0000, -6.560829577480893E+08, -1.340182284331738E+09,  4.945078935138154E+07,
2446493.500000000, A.D. 1986-Mar-04 00:00:00.0000, -6.539662449730803E+08, -1.341286876075968E+09,  4.938582833505487E+07,
2446496.500000000, A.D. 1986-Mar-07 00:00:00.0000, -6.518480990379754E+08, -1.342387998148752E+09,  4.932083348988551E+07,
2446499.500000000, A.D. 1986-Mar-10 00:00:00.0000, -6.497281685204537E+08, -1.343485844276311E+09,  4.925587157673377E+07,
2446502.500000000, A.D. 1986-Mar-13 00:00:00.0000, -6.476061499453121E+08, -1.344580175623079E+09,  4.919079060885096E+07,
2446505.500000000, A.D. 1986-Mar-16 00:00:00.0000, -6.454822087333741E+08, -1.345670634917220E+09,  4.912542313731855E+07,
2446508.500000000, A.D. 1986-Mar-19 00:00:00.0000, -6.433567296248962E+08, -1.346757215948426E+09,  4.905980455157626E+07,
2446511.500000000, A.D. 1986-Mar-22 00:00:00.0000, -6.412298854507722E+08, -1.347840214707370E+09,  4.899410544162303E+07,
2446514.500000000, A.D. 1986-Mar-25 00:00:00.0000, -6.391014313861279E+08, -1.348919899052744E+09,  4.892844103261018E+07,
